{
  "type": "FeatureCollection",
  "features": [
    {
      "type": "Feature",
      "properties": {
        "norad_id": 36828,
        "name": "BEIDOU-2 IGSO-1 (C06)",
        "group": "beidou",
        "lat": 51.00010861393557,
        "lon": -78.15065036901969,
        "alt_km": 35849.32108981763,
        "timestamp": "2025-12-09T05:43:20.990608+00:00",
        "meta_object_name": "BEIDOU-2 IGSO-1 (C06)",
        "meta_object_id": "2010-036A",
        "meta_epoch": "2025-12-08T10:41:23.989056",
        "meta_mean_motion": 1.00277305,
        "meta_eccentricity": 0.0051235,
        "meta_inclination": 54.2853,
        "meta_ra_of_asc_node": 164.6865,
        "meta_arg_of_pericenter": 215.8868,
        "meta_mean_anomaly": 325.0672,
        "meta_ephemeris_type": 0,
        "meta_classification_type": "U",
        "meta_norad_cat_id": 36828,
        "meta_element_set_no": 999,
        "meta_rev_at_epoch": 5618,
        "meta_bstar": 0,
        "meta_mean_motion_dot": -6.9e-07,
        "meta_mean_motion_ddot": 0,
        "tle_line1": "1 36828U 10036A   25342.44541654 -.00000069  00000+0  00000+0 0  9990",
        "tle_line2": "2 36828  54.2853 164.6865 0051235 215.8868 325.0672  1.00277305 56186"
      },
      "geometry": {
        "type": "Point",
        "coordinates": [
          -78.15065036901969,
          51.00010861393557
        ]
      }
    },
    {
      "type": "Feature",
      "properties": {
        "norad_id": 37210,
        "name": "BEIDOU-2 G4 (C04)",
        "group": "beidou",
        "lat": -3.0658664199035073,
        "lon": -35.76511978840616,
        "alt_km": 35766.79573090323,
        "timestamp": "2025-12-09T05:43:20.990632+00:00",
        "meta_object_name": "BEIDOU-2 G4 (C04)",
        "meta_object_id": "2010-057A",
        "meta_epoch": "2025-12-08T19:30:04.457376",
        "meta_mean_motion": 1.0027123,
        "meta_eccentricity": 0.001099,
        "meta_inclination": 3.1744,
        "meta_ra_of_asc_node": 69.9383,
        "meta_arg_of_pericenter": 189.4969,
        "meta_mean_anomaly": 270.9695,
        "meta_ephemeris_type": 0,
        "meta_classification_type": "U",
        "meta_norad_cat_id": 37210,
        "meta_element_set_no": 999,
        "meta_rev_at_epoch": 5538,
        "meta_bstar": 0,
        "meta_mean_motion_dot": -1.1e-06,
        "meta_mean_motion_ddot": 0,
        "tle_line1": "1 37210U 10057A   25342.81255159 -.00000110  00000+0  00000+0 0  9999",
        "tle_line2": "2 37210   3.1744  69.9383 0010990 189.4969 270.9695  1.00271230 55382"
      },
      "geometry": {
        "type": "Point",
        "coordinates": [
          -35.76511978840616,
          -3.0658664199035073
        ]
      }
    },
    {
      "type": "Feature",
      "properties": {
        "norad_id": 37256,
        "name": "BEIDOU-2 IGSO-2 (C07)",
        "group": "beidou",
        "lat": -1.725858751240275,
        "lon": -87.38720857430864,
        "alt_km": 35944.91230215724,
        "timestamp": "2025-12-09T05:43:20.990647+00:00",
        "meta_object_name": "BEIDOU-2 IGSO-2 (C07)",
        "meta_object_id": "2010-068A",
        "meta_epoch": "2025-12-03T17:22:36.026976",
        "meta_mean_motion": 1.0028872,
        "meta_eccentricity": 0.0049245,
        "meta_inclination": 47.9042,
        "meta_ra_of_asc_node": 274.2614,
        "meta_arg_of_pericenter": 216.1411,
        "meta_mean_anomaly": 310.24,
        "meta_ephemeris_type": 0,
        "meta_classification_type": "U",
        "meta_norad_cat_id": 37256,
        "meta_element_set_no": 999,
        "meta_rev_at_epoch": 5483,
        "meta_bstar": 0,
        "meta_mean_motion_dot": -2.25e-06,
        "meta_mean_motion_ddot": 0,
        "tle_line1": "1 37256U 10068A   25337.72402809 -.00000225  00000+0  00000+0 0  9998",
        "tle_line2": "2 37256  47.9042 274.2614 0049245 216.1411 310.2400  1.00288720 54835"
      },
      "geometry": {
        "type": "Point",
        "coordinates": [
          -87.38720857430864,
          -1.725858751240275
        ]
      }
    },
    {
      "type": "Feature",
      "properties": {
        "norad_id": 37384,
        "name": "BEIDOU-2 IGSO-3 (C08)",
        "group": "beidou",
        "lat": -42.6102471009639,
        "lon": -108.94434853019281,
        "alt_km": 35682.095476015806,
        "timestamp": "2025-12-09T05:43:20.990662+00:00",
        "meta_object_name": "BEIDOU-2 IGSO-3 (C08)",
        "meta_object_id": "2011-013A",
        "meta_epoch": "2025-12-07T14:00:04.361184",
        "meta_mean_motion": 1.00271435,
        "meta_eccentricity": 0.0035334,
        "meta_inclination": 62.1366,
        "meta_ra_of_asc_node": 41.9657,
        "meta_arg_of_pericenter": 187.0632,
        "meta_mean_anomaly": 165.2408,
        "meta_ephemeris_type": 0,
        "meta_classification_type": "U",
        "meta_norad_cat_id": 37384,
        "meta_element_set_no": 999,
        "meta_rev_at_epoch": 5373,
        "meta_bstar": 0,
        "meta_mean_motion_dot": -1.91e-06,
        "meta_mean_motion_ddot": 0,
        "tle_line1": "1 37384U 11013A   25341.58338381 -.00000191  00000+0  00000+0 0  9995",
        "tle_line2": "2 37384  62.1366  41.9657 0035334 187.0632 165.2408  1.00271435 53735"
      },
      "geometry": {
        "type": "Point",
        "coordinates": [
          -108.94434853019281,
          -42.6102471009639
        ]
      }
    },
    {
      "type": "Feature",
      "properties": {
        "norad_id": 37763,
        "name": "BEIDOU-2 IGSO-4 (C09)",
        "group": "beidou",
        "lat": 54.52679730739679,
        "lon": -102.82346349502245,
        "alt_km": 36257.83188416802,
        "timestamp": "2025-12-09T05:43:20.990675+00:00",
        "meta_object_name": "BEIDOU-2 IGSO-4 (C09)",
        "meta_object_id": "2011-038A",
        "meta_epoch": "2025-12-01T12:32:09.960000",
        "meta_mean_motion": 1.00284084,
        "meta_eccentricity": 0.0148808,
        "meta_inclination": 54.5806,
        "meta_ra_of_asc_node": 167.4476,
        "meta_arg_of_pericenter": 230.2017,
        "meta_mean_anomaly": 315.0405,
        "meta_ephemeris_type": 0,
        "meta_classification_type": "U",
        "meta_norad_cat_id": 37763,
        "meta_element_set_no": 999,
        "meta_rev_at_epoch": 5266,
        "meta_bstar": 0,
        "meta_mean_motion_dot": 1.01e-06,
        "meta_mean_motion_ddot": 0,
        "tle_line1": "1 37763U 11038A   25335.52233750  .00000101  00000+0  00000+0 0  9994",
        "tle_line2": "2 37763  54.5806 167.4476 0148808 230.2017 315.0405  1.00284084 52669"
      },
      "geometry": {
        "type": "Point",
        "coordinates": [
          -102.82346349502245,
          54.52679730739679
        ]
      }
    },
    {
      "type": "Feature",
      "properties": {
        "norad_id": 37948,
        "name": "BEIDOU-2 IGSO-5 (C10)",
        "group": "beidou",
        "lat": -11.831795335888575,
        "lon": -96.96880695584848,
        "alt_km": 36024.73570442723,
        "timestamp": "2025-12-09T05:43:20.990689+00:00",
        "meta_object_name": "BEIDOU-2 IGSO-5 (C10)",
        "meta_object_id": "2011-073A",
        "meta_epoch": "2025-12-07T19:12:14.882400",
        "meta_mean_motion": 1.00291658,
        "meta_eccentricity": 0.01104068,
        "meta_inclination": 48.0298,
        "meta_ra_of_asc_node": 273.9181,
        "meta_arg_of_pericenter": 222.1784,
        "meta_mean_anomaly": 321.4594,
        "meta_ephemeris_type": 0,
        "meta_classification_type": "U",
        "meta_norad_cat_id": 37948,
        "meta_element_set_no": 999,
        "meta_rev_at_epoch": 5121,
        "meta_bstar": 0,
        "meta_mean_motion_dot": -1.91e-06,
        "meta_mean_motion_ddot": 0,
        "tle_line1": "1 37948U 11073A   25341.80017225 -.00000191  00000+0  00000+0 0  9993",
        "tle_line2": "2 37948  48.0298 273.9181 0110406 222.1784 321.4594  1.00291658 51212"
      },
      "geometry": {
        "type": "Point",
        "coordinates": [
          -96.96880695584848,
          -11.831795335888575
        ]
      }
    },
    {
      "type": "Feature",
      "properties": {
        "norad_id": 38091,
        "name": "BEIDOU-2 G5 (C05)",
        "group": "beidou",
        "lat": 1.4396332105628236,
        "lon": -137.28811272379156,
        "alt_km": 35770.4972233554,
        "timestamp": "2025-12-09T05:43:20.990703+00:00",
        "meta_object_name": "BEIDOU-2 G5 (C05)",
        "meta_object_id": "2012-008A",
        "meta_epoch": "2025-12-08T20:43:57.379584",
        "meta_mean_motion": 1.00274009,
        "meta_eccentricity": 0.0012521,
        "meta_inclination": 3.0991,
        "meta_ra_of_asc_node": 70.7118,
        "meta_arg_of_pericenter": 226.0714,
        "meta_mean_anomaly": 150.8104,
        "meta_ephemeris_type": 0,
        "meta_classification_type": "U",
        "meta_norad_cat_id": 38091,
        "meta_element_set_no": 999,
        "meta_rev_at_epoch": 5046,
        "meta_bstar": 0,
        "meta_mean_motion_dot": 5.8e-07,
        "meta_mean_motion_ddot": 0,
        "tle_line1": "1 38091U 12008A   25342.86385856  .00000058  00000+0  00000+0 0  9998",
        "tle_line2": "2 38091   3.0991  70.7118 0012521 226.0714 150.8104  1.00274009 50469"
      },
      "geometry": {
        "type": "Point",
        "coordinates": [
          -137.28811272379156,
          1.4396332105628236
        ]
      }
    }
  ]
}